ANIK F1R                
1 28868U 05036A   23117.21468299 -.00000075  00000+0  00000+0 0  9992
2 28868   1.3582  90.4657 0002460 322.7892 131.6893  1.00271911 64653
INMARSAT 4-F2           
1 28899U 05044A   23116.85049267  .00000010  00000+0  00000+0 0  9992
2 28899   3.7652  39.9686 0002677 357.9403 186.7355  1.00272180 64012
QZS-1 (MICHIBIKI-1)     
1 37158U 10045A   23117.35220088 -.00000107  00000+0  00000+0 0  9993
2 37158  42.6727 129.0676 0759450 270.3404  80.7263  1.00290022 46210
GSAT-8                  
1 37605U 11022A   23116.85049267  .00000082  00000+0  00000+0 0  9999
2 37605   0.0390  82.7931 0004810 225.7786 267.2629  1.00272092 43739
LUCH-5A                 
1 37951U 11074B   23116.71095384 -.00000048  00000+0  00000+0 0  9999
2 37951   5.8131  91.9112 0004203 324.2086 221.1863  1.00268999 41688
SES-5                   
1 38652U 12036A   23116.75043949  .00000032  00000+0  00000+0 0  9993
2 38652   0.0479 296.5537 0001788  87.8013 105.2670  1.00272838 32988
GSAT-10                 
1 38779U 12051B   23116.85494649 -.00000167  00000+0  00000+0 0  9998
2 38779   0.0247 131.6849 0001854 186.8839 286.8000  1.00273206 38783
LUCH-5B                 
1 38977U 12061A   23116.67445574 -.00000135  00000+0  00000+0 0  9997
2 38977   7.9718  60.1909 0002231  18.0157   2.6638  1.00270952 38678
ASTRA 5B                
1 39617U 14011B   23117.17688088  .00000153  00000+0  00000+0 0  9990
2 39617   0.0704 303.5757 0002918  99.3612 267.1638  1.00272959 33362
LUCH-5V                 
1 39727U 14023A   23116.84441435 -.00000270  00000+0  00000+0 0  9992
2 39727   2.2576  77.4760 0001518 341.1287 194.6097  1.00277474 32850
GSAT-15                 
1 41028U 15065A   23116.85881955 -.00000260  00000+0  00000+0 0  9991
2 41028   0.0496  91.1952 0002776 324.5240 201.5347  1.00273473 27306
EUTELSAT 117 WEST B     
1 41589U 16038B   23117.09900591 -.00000013  00000+0  00000+0 0  9995
2 41589   0.0122 104.0842 0000025 237.4770 151.9127  1.00270250 25202
SES-15                  
1 42709U 17026A   23116.72367991  .00000058  00000+0  00000+0 0  9996
2 42709   0.0347  54.5004 0000369 288.9146   2.4261  1.00270365 22634
QZS-2 (MICHIBIKI-2)     
1 42738U 17028A   23116.70711859 -.00000225  00000+0  00000+0 0  9991
2 42738  41.2556 259.7228 0740395 270.6648  76.7068  1.00251117 21639
QZS-3 (MICHIBIKI-3)     
1 42917U 17048A   23116.80680156 -.00000350  00000+0  00000+0 0  9997
2 42917   0.0534 197.6852 0002321 192.2687 242.0635  1.00272632 20757
QZS-4 (MICHIBIKI-4)     
1 42965U 17062A   23116.68765414 -.00000341  00000+0  00000+0 0  9993
2 42965  40.6793 358.1011 0747026 270.6399 332.6042  1.00269018 20300
BEIDOU-3 G1             
1 43683U 18085A   23116.84899883 -.00000279  00000+0  00000+0 0  9993
2 43683   1.2447 134.6255 0004237 308.2268 217.4609  1.00269730 16559
